[{"OBJECT_NAME":"STARLINK-3948","OBJECT_ID":"2022-051P","EPOCH":"2026-03-09T10:52:55.094880","MEAN_MOTION":15.08830607,"ECCENTRICITY":0.00013077,"INCLINATION":53.2161,"RA_OF_ASC_NODE":129.9475,"ARG_OF_PERICENTER":96.0274,"MEAN_ANOMALY":264.0867,"EPHEMERIS_TYPE":0,"CLASSIFICATION_TYPE":"U","NORAD_CAT_ID":52546,"ELEMENT_SET_NO":999,"REV_AT_EPOCH":21141,"BSTAR":-0.00012723095,"MEAN_MOTION_DOT":-2.312e-5,"MEAN_MOTION_DDOT":0},{"OBJECT_NAME":"YUNYAO-1 43","OBJECT_ID":"2025-059A","EPOCH":"2026-03-09T23:54:24.516576","MEAN_MOTION":15.10329109,"ECCENTRICITY":0.00157026,"INCLINATION":97.608,"RA_OF_ASC_NODE":250.9377,"ARG_OF_PERICENTER":132.1084,"MEAN_ANOMALY":228.1483,"EPHEMERIS_TYPE":0,"CLASSIFICATION_TYPE":"U","NORAD_CAT_ID":63344,"ELEMENT_SET_NO":999,"REV_AT_EPOCH":5332,"BSTAR":0.00032498885,"MEAN_MOTION_DOT":5.279e-5,"MEAN_MOTION_DDOT":0}]
